CCSDS_OEM_VERS = 2.0  
CREATION_DATE  = 2026-03-24T10:47:06
ORIGINATOR     = ESOC/OPS-GFA                            
 
 



META_START
OBJECT_NAME          = LISA                                    
OBJECT_ID            = -1000                                   
CENTER_NAME          = SUN                     
REF_FRAME            = EME2000 
TIME_SYSTEM          = TCB
START_TIME           = 2036-12-23T00:00:30.346418            
STOP_TIME            = 2047-09-05T09:46:24.533688            
INTERPOLATION        = HERMITE                                 
INTERPOLATION_DEGREE = 7                                       
META_STOP

2045-11-25T09:43:00.459902     1.12161564427467823e+08    9.07803710239814520e+07    3.82778901197420061e+07   -1.96452322432259443e+01    2.05886916030512275e+01    9.09047344194992490e+00   -4.47421243565133846e-06   -3.62124361551823263e-06   -1.52692506057088941e-06
2045-11-26T05:56:53.568113     1.10718925236100763e+08    9.22702524034668207e+07    3.89359045469738543e+07   -1.99689916113915373e+01    2.03227941137118400e+01    8.97831247322583792e+00   -4.41607661378541440e-06   -3.68017904683803740e-06   -1.55296344989479890e-06
2045-11-27T02:10:46.676323     1.09252860639849529e+08    9.37406119965541661e+07    3.95856811628360376e+07   -2.02884828420205992e+01    2.00526333647319213e+01    8.86426737765355988e+00   -4.35701142777674616e-06   -3.73831083075437301e-06   -1.57866234607167552e-06
2045-11-27T22:24:39.784533     1.07763683958065182e+08    9.51911414471773803e+07    4.02270836491771191e+07   -2.06036387335992899e+01    1.97782683365802434e+01    8.74836307985414763e+00   -4.29703028299283702e-06   -3.79562668994929806e-06   -1.60401631878710634e-06
2045-11-28T18:38:32.892744     1.06251713379889011e+08    9.66215367472952455e+07    4.08599775260187164e+07   -2.09143930682881631e+01    1.94997588964094319e+01    8.63062489674924471e+00   -4.23614678625098018e-06   -3.85211455472964180e-06   -1.62902002631762380e-06
2045-11-29T14:52:26.000954     1.04717271884792656e+08    9.80314982872418761e+07    4.14842301740453690e+07   -2.12206806266450236e+01    1.92171657826842441e+01    8.51107853100821288e+00   -4.17437474656071112e-06   -3.90776256922511271e-06   -1.65366821801491885e-06
2045-11-30T11:06:19.109164     1.03160687160577476e+08    9.94207309021299630e+07    4.20997108554080129e+07   -2.15224372022593826e+01    1.89305505895033832e+01    8.38975006437490300e+00   -4.11172817195037581e-06   -3.96255909360277038e-06   -1.67795573512526570e-06
2045-12-01T07:20:12.217376     1.01582291521520048e+08    1.00788943919491366e+08    4.27062907350590974e+07   -2.18195996160146315e+01    1.86399757509039290e+01    8.26666595099488433e+00   -4.04822126241649954e-06   -4.01649270233035597e-06   -1.70187750995799088e-06
2045-12-02T03:34:05.325585     9.99824218293500543e+07    1.02135851213339716e+08    4.33038429048374891e+07   -2.21121057296938233e+01    1.83455045254375300e+01    8.14185301086394730e+00   -3.98386839896498400e-06   -4.06955217845993373e-06   -1.72542856339078330e-06
2045-12-02T23:47:58.433796     9.83614194197477102e+07    1.03461171269839972e+08    4.38922424125211984e+07   -2.23998944586452851e+01    1.80472009813074408e+01    8.01533842351869197e+00   -3.91868412872600918e-06   -4.12172650392390962e-06   -1.74860400070858158e-06
2045-12-03T20:01:51.542006     9.67196300370470732e+07    1.04764627269769162e+08    4.44713662980660424e+07   -2.26829057832239762e+01    1.77451299823555679e+01    7.88714972209000731e+00   -3.85268314623879048e-06   -4.17300484591222167e-06   -1.77139900580512365e-06
2045-12-04T16:15:44.650217     9.50574037798318118e+07    1.06045947192953646e+08    4.50410936392483264e+07   -2.29610807587247017e+01    1.74393571751885510e+01    7.75731478784028372e+00   -3.78588027077498204e-06   -4.22337653923243749e-06   -1.79380883370553953e-06
2045-12-05T12:29:37.758427     9.33750950601107627e+07    1.07304863949867010e+08    4.56013056089296415e+07   -2.32343615235231695e+01    1.71299489777320844e+01    7.62586184530514544e+00   -3.71829041973794624e-06   -4.27283106468175142e-06   -1.81582880142244796e-06
2045-12-06T08:47:43.326378     9.16671288494409770e+07    1.08545360721814111e+08    4.61537769966626242e+07   -2.35036127524490652e+01    1.68158815612247778e+01    7.49235555782159945e+00   -3.64969084134380103e-06   -4.32152517296254991e-06   -1.83752878458040095e-06
2045-12-07T05:05:48.894328     8.99396681618314087e+07    1.09762774501011580e+08    4.66964334090863541e+07   -2.37678224197988222e+01    1.64982897358532341e+01    7.35727796331479666e+00   -3.58032977177289845e-06   -4.36927552811994324e-06   -1.85882717709193643e-06
2045-12-08T01:23:54.462280     8.81930834858726412e+07    1.10956850266396791e+08    4.72291610970853567e+07   -2.40269354458649502e+01    1.61772428329390117e+01    7.22065857168680125e+00   -3.51022294553876503e-06   -4.41607239733094221e-06   -1.87971962701507604e-06
2045-12-08T21:42:00.030230     8.64277492802032530e+07    1.12127338026008561e+08    4.77518484523252994e+07   -2.42808979051099314e+01    1.58528108892027149e+01    7.08252720840055705e+00   -3.43938621401049158e-06   -4.46190621495161472e-06   -1.90020185302875813e-06
2045-12-09T18:00:05.598181     8.46440439013889134e+07    1.13273992923144341e+08    4.82643860538458228e+07   -2.45296570350562746e+01    1.55250646335432734e+01    6.94291400888556343e+00   -3.36783555445452442e-06   -4.50676760904824733e-06   -1.92026965589598403e-06
2045-12-10T14:18:11.166131     8.28423495250552893e+07    1.14396575315208599e+08    4.87666667028952688e+07   -2.47731612457363966e+01    1.51940754720617051e+01    6.80184941218441352e+00   -3.29558707638919212e-06   -4.55064742298019623e-06   -1.93991892780609711e-06
2045-12-11T10:36:16.734082     8.10230520615872741e+07    1.15494850830980480e+08    4.92585854484747350e+07   -2.50113601295087982e+01    1.48599154716880371e+01    6.65936415399394388e+00   -3.22265702525556883e-06   -4.59353673204236858e-06   -1.95914565959926834e-06
2045-12-12T06:54:22.302033     7.91865410677214861e+07    1.16568590412014842e+08    4.97400396060532033e+07   -2.52442044710443767e+01    1.45226573427726251e+01    6.51548925925584310e+00   -3.14906178340054877e-06   -4.63542685516103560e-06   -1.97794594587070228e-06
2045-12-13T03:12:27.869983     7.73332096553590149e+07    1.17617570343891159e+08    5.02109287719153091e+07   -2.54716462572864657e+01    1.41823744210032423e+01    6.37025603445160726e+00   -3.07481786837826522e-06   -4.67630936165191974e-06   -1.99631598795828090e-06
2045-12-13T23:30:33.437934     7.54634543989253789e+07    1.18641572283024624e+08    5.06711548356033564e+07   -2.56936386871884288e+01    1.38391406490091651e+01    6.22369605975669948e+00   -2.99994192855577931e-06   -4.71617607302133906e-06   -2.01425209480546946e-06
2045-12-14T19:48:39.005884     7.35776752426045984e+07    1.19640383284753710e+08    5.11206219929153547e+07   -2.59101361810323993e+01    1.34930305580135936e+01    6.07584118120878713e+00   -2.92445073604792103e-06   -4.75501905984471801e-06   -2.03175068171418504e-06
2045-12-15T16:06:44.573835     7.16762754087745696e+07    1.20613795838418782e+08    5.15592367619205043e+07   -2.61210943891329812e+01    1.31441192498957093e+01    5.92672350304491680e+00   -2.84836117695625054e-06   -4.79283063368500289e-06   -2.04880826697147257e-06
2045-12-16T12:24:50.141786     6.97596613089704216e+07    1.21561607915145978e+08    5.19869080044540167e+07   -2.63264701997295134e+01    1.27924823800236638e+01    5.77637538036251375e+00   -2.77169023892367421e-06   -4.82960333407313867e-06   -2.06542146635964077e-06
2045-12-17T08:42:55.709737     6.78282424587029368e+07    1.22483623034050554e+08    5.24035469555526152e+07   -2.65262217458707674e+01    1.24381961412197573e+01    5.62482941225905275e+00   -2.69445499599721666e-06   -4.86532991053666240e-06   -2.08158698554394912e-06
2045-12-18T05:01:01.277688     6.58824313974591792e+07    1.23379650352574587e+08    5.28090672632927150e+07   -2.67203084110955587e+01    1.20813372492192244e+01    5.47211843560527722e+00   -2.61667259083645580e-06   -4.90000329972128995e-06   -2.09730161035648010e-06
2045-12-19T01:19:06.845638     6.39226436152121201e+07    1.24249504786672607e+08    5.32033850414925069e+07   -2.69086908337132122e+01    1.17219829299837333e+01    5.31827551960684719e+00   -2.53836021415573464e-06   -4.93361659747372820e-06   -2.11256219492092914e-06
2045-12-19T21:39:34.026224     6.19454609346472323e+07    1.25094615547041476e+08    5.35871499720566571e+07   -2.70916792123505878e+01    1.13595076111876310e+01    5.16303268793624337e+00   -2.45938225758423846e-06   -4.96622573850089036e-06   -2.12739418087298245e-06
2045-12-20T18:00:01.206808     5.99550907321265936e+07    1.25913096810158700e+08    5.39595075603766963e+07   -2.72688659559276054e+01    1.09946838097235968e+01    5.00672063652247346e+00   -2.37990737226234085e-06   -4.99775797201434645e-06   -2.14176454521781199e-06
2045-12-21T14:20:28.387393     5.79519591566652656e+07    1.26704779528874233e+08    5.43203807649356425e+07   -2.74402153227569663e+01    1.06275906027043217e+01    4.84937326899305177e+00   -2.29995323917244224e-06   -5.02820736618357091e-06   -2.15567055842085604e-06
2045-12-22T10:40:55.567978     5.59364949299658909e+07    1.27469500397351176e+08    5.46696950059576631e+07   -2.76056928681044162e+01    1.02583074950478839e+01    4.69102468603081491e+00   -2.21953760073947894e-06   -5.05756817367918419e-06   -2.16910957022658036e-06
2045-12-23T07:01:22.748563     5.39091292497982830e+07    1.28207101938171759e+08    5.50073782039996386e+07   -2.77652654488098669e+01    9.88691440491340856e+00    4.53170917911274085e+00   -2.13867826385671409e-06   -5.08583485946034039e-06   -2.18207902167864307e-06
